<?xml version="1.0" ?>
<TrainingCenterDatabase xmlns="http://www.garmin.com/xmlschemas/TrainingCenterDatabase/v2" xmlns:ext="http://www.garmin.com/xmlschemas/ActivityExtension/v2" xmlns:xsi="http://www.w3.org/2001/XMLSchema-instance" xsi:schemaLocation="http://www.garmin.com/xmlschemas/TrainingCenterDatabase/v2 https://www8.garmin.com/xmlschemas/TrainingCenterDatabasev2.xsd">
  <Activities>
    <Activity Sport="Biking">
      <Id>2026-09-07T19:07:29.000Z</Id>
      <Lap StartTime="2026-09-07T19:07:29.000Z">
        <TotalTimeSeconds>93.1</TotalTimeSeconds>
        <DistanceMeters>0.0</DistanceMeters>
        <Calories>0</Calories>
        <AverageHeartRateBpm>
          <Value>95</Value>
        </AverageHeartRateBpm>
        <MaximumHeartRateBpm>
          <Value>106</Value>
        </MaximumHeartRateBpm>
        <Intensity>Active</Intensity>
        <TriggerMethod>Manual</TriggerMethod>
        <Notes>Aquecimento</Notes>
        <Track>
          <Trackpoint>
            <Time>2026-09-07T19:07:29.000Z</Time>
            <HeartRateBpm>
              <Value>88</Value>
            </HeartRateBpm>
            <Cadence>71</Cadence>
            <Extensions>
              <ext:TPX>
                <ext:Watts>69</ext:Watts>
              </ext:TPX>
            </Extensions>
          </Trackpoint>
          <Trackpoint>
            <Time>2026-09-07T19:07:30.000Z</Time>
            <HeartRateBpm>
              <Value>88</Value>
            </HeartRateBpm>
            <Cadence>68</Cadence>
            <Extensions>
              <ext:TPX>
                <ext:Watts>69</ext:Watts>
              </ext:TPX>
            </Extensions>
          </Trackpoint>
          <Trackpoint>
            <Time>2026-09-07T19:07:31.000Z</Time>
            <HeartRateBpm>
              <Value>89</Value>
            </HeartRateBpm>
            <Cadence>68</Cadence>
            <Extensions>
              <ext:TPX>
                <ext:Watts>69</ext:Watts>
              </ext:TPX>
            </Extensions>
          </Trackpoint>
          <Trackpoint>
            <Time>2026-09-07T19:07:32.000Z</Time>
            <HeartRateBpm>
              <Value>91</Value>
            </HeartRateBpm>
            <Cadence>70</Cadence>
            <Extensions>
              <ext:TPX>
                <ext:Watts>74</ext:Watts>
              </ext:TPX>
            </Extensions>
          </Trackpoint>
          <Trackpoint>
            <Time>2026-09-07T19:07:33.000Z</Time>
            <HeartRateBpm>
              <Value>92</Value>
            </HeartRateBpm>
            <Cadence>69</Cadence>
            <Extensions>
              <ext:TPX>
                <ext:Watts>72</ext:Watts>
              </ext:TPX>
            </Extensions>
          </Trackpoint>
          <Trackpoint>
            <Time>2026-09-07T19:07:34.000Z</Time>
            <HeartRateBpm>
              <Value>92</Value>
            </HeartRateBpm>
            <Cadence>69</Cadence>
            <Extensions>
              <ext:TPX>
                <ext:Watts>68</ext:Watts>
              </ext:TPX>
            </Extensions>
          </Trackpoint>
          <Trackpoint>
            <Time>2026-09-07T19:07:35.000Z</Time>
            <HeartRateBpm>
              <Value>92</Value>
            </HeartRateBpm>
            <Cadence>67</Cadence>
            <Extensions>
              <ext:TPX>
                <ext:Watts>66</ext:Watts>
              </ext:TPX>
            </Extensions>
          </Trackpoint>
          <Trackpoint>
            <Time>2026-09-07T19:07:36.000Z</Time>
            <HeartRateBpm>
              <Value>91</Value>
            </HeartRateBpm>
            <Cadence>67</Cadence>
            <Extensions>
              <ext:TPX>
                <ext:Watts>66</ext:Watts>
              </ext:TPX>
            </Extensions>
          </Trackpoint>
          <Trackpoint>
            <Time>2026-09-07T19:07:37.000Z</Time>
            <HeartRateBpm>
              <Value>91</Value>
            </HeartRateBpm>
            <Cadence>67</Cadence>
            <Extensions>
              <ext:TPX>
                <ext:Watts>66</ext:Watts>
              </ext:TPX>
            </Extensions>
          </Trackpoint>
          <Trackpoint>
            <Time>2026-09-07T19:07:38.000Z</Time>
            <HeartRateBpm>
              <Value>91</Value>
            </HeartRateBpm>
            <Cadence>67</Cadence>
            <Extensions>
              <ext:TPX>
                <ext:Watts>66</ext:Watts>
              </ext:TPX>
            </Extensions>
          </Trackpoint>
          <Trackpoint>
            <Time>2026-09-07T19:07:39.000Z</Time>
            <HeartRateBpm>
              <Value>91</Value>
            </HeartRateBpm>
            <Cadence>67</Cadence>
            <Extensions>
              <ext:TPX>
                <ext:Watts>34</ext:Watts>
              </ext:TPX>
            </Extensions>
          </Trackpoint>
          <Trackpoint>
            <Time>2026-09-07T19:07:40.000Z</Time>
            <HeartRateBpm>
              <Value>91</Value>
            </HeartRateBpm>
            <Cadence>11</Cadence>
            <Extensions>
              <ext:TPX>
                <ext:Watts>34</ext:Watts>
              </ext:TPX>
            </Extensions>
          </Trackpoint>
          <Trackpoint>
            <Time>2026-09-07T19:07:41.000Z</Time>
            <HeartRateBpm>
              <Value>91</Value>
            </HeartRateBpm>
            <Cadence>11</Cadence>
            <Extensions>
              <ext:TPX>
                <ext:Watts>35</ext:Watts>
              </ext:TPX>
            </Extensions>
          </Trackpoint>
          <Trackpoint>
            <Time>2026-09-07T19:07:42.000Z</Time>
            <HeartRateBpm>
              <Value>91</Value>
            </HeartRateBpm>
            <Cadence>11</Cadence>
            <Extensions>
              <ext:TPX>
                <ext:Watts>50</ext:Watts>
              </ext:TPX>
            </Extensions>
          </Trackpoint>
          <Trackpoint>
            <Time>2026-09-07T19:07:43.000Z</Time>
            <HeartRateBpm>
              <Value>90</Value>
            </HeartRateBpm>
            <Cadence>11</Cadence>
            <Extensions>
              <ext:TPX>
                <ext:Watts>50</ext:Watts>
              </ext:TPX>
            </Extensions>
          </Trackpoint>
          <Trackpoint>
            <Time>2026-09-07T19:07:44.000Z</Time>
            <HeartRateBpm>
              <Value>89</Value>
            </HeartRateBpm>
            <Cadence>11</Cadence>
            <Extensions>
              <ext:TPX>
                <ext:Watts>67</ext:Watts>
              </ext:TPX>
            </Extensions>
          </Trackpoint>
          <Trackpoint>
            <Time>2026-09-07T19:07:45.000Z</Time>
            <HeartRateBpm>
              <Value>85</Value>
            </HeartRateBpm>
            <Cadence>74</Cadence>
            <Extensions>
              <ext:TPX>
                <ext:Watts>79</ext:Watts>
              </ext:TPX>
            </Extensions>
          </Trackpoint>
          <Trackpoint>
            <Time>2026-09-07T19:07:46.000Z</Time>
            <HeartRateBpm>
              <Value>84</Value>
            </HeartRateBpm>
            <Cadence>75</Cadence>
            <Extensions>
              <ext:TPX>
                <ext:Watts>80</ext:Watts>
              </ext:TPX>
            </Extensions>
          </Trackpoint>
          <Trackpoint>
            <Time>2026-09-07T19:07:47.000Z</Time>
            <HeartRateBpm>
              <Value>83</Value>
            </HeartRateBpm>
            <Cadence>78</Cadence>
            <Extensions>
              <ext:TPX>
                <ext:Watts>83</ext:Watts>
              </ext:TPX>
            </Extensions>
          </Trackpoint>
          <Trackpoint>
            <Time>2026-09-07T19:07:48.000Z</Time>
            <HeartRateBpm>
              <Value>83</Value>
            </HeartRateBpm>
            <Cadence>78</Cadence>
            <Extensions>
              <ext:TPX>
                <ext:Watts>83</ext:Watts>
              </ext:TPX>
            </Extensions>
          </Trackpoint>
          <Trackpoint>
            <Time>2026-09-07T19:07:49.000Z</Time>
            <HeartRateBpm>
              <Value>82</Value>
            </HeartRateBpm>
            <Cadence>78</Cadence>
            <Extensions>
              <ext:TPX>
                <ext:Watts>83</ext:Watts>
              </ext:TPX>
            </Extensions>
          </Trackpoint>
          <Trackpoint>
            <Time>2026-09-07T19:07:50.000Z</Time>
            <HeartRateBpm>
              <Value>81</Value>
            </HeartRateBpm>
            <Cadence>78</Cadence>
            <Extensions>
              <ext:TPX>
                <ext:Watts>83</ext:Watts>
              </ext:TPX>
            </Extensions>
          </Trackpoint>
          <Trackpoint>
            <Time>2026-09-07T19:07:51.000Z</Time>
            <HeartRateBpm>
              <Value>81</Value>
            </HeartRateBpm>
            <Cadence>75</Cadence>
            <Extensions>
              <ext:TPX>
                <ext:Watts>84</ext:Watts>
              </ext:TPX>
            </Extensions>
          </Trackpoint>
          <Trackpoint>
            <Time>2026-09-07T19:07:52.000Z</Time>
            <HeartRateBpm>
              <Value>80</Value>
            </HeartRateBpm>
            <Cadence>81</Cadence>
            <Extensions>
              <ext:TPX>
                <ext:Watts>84</ext:Watts>
              </ext:TPX>
            </Extensions>
          </Trackpoint>
          <Trackpoint>
            <Time>2026-09-07T19:07:53.000Z</Time>
            <HeartRateBpm>
              <Value>80</Value>
            </HeartRateBpm>
            <Cadence>77</Cadence>
            <Extensions>
              <ext:TPX>
                <ext:Watts>84</ext:Watts>
              </ext:TPX>
            </Extensions>
          </Trackpoint>
          <Trackpoint>
            <Time>2026-09-07T19:07:54.000Z</Time>
            <HeartRateBpm>
              <Value>80</Value>
            </HeartRateBpm>
            <Cadence>79</Cadence>
            <Extensions>
              <ext:TPX>
                <ext:Watts>84</ext:Watts>
              </ext:TPX>
            </Extensions>
          </Trackpoint>
          <Trackpoint>
            <Time>2026-09-07T19:07:55.000Z</Time>
            <HeartRateBpm>
              <Value>80</Value>
            </HeartRateBpm>
            <Cadence>79</Cadence>
            <Extensions>
              <ext:TPX>
                <ext:Watts>84</ext:Watts>
              </ext:TPX>
            </Extensions>
          </Trackpoint>
          <Trackpoint>
            <Time>2026-09-07T19:07:56.000Z</Time>
            <HeartRateBpm>
              <Value>80</Value>
            </HeartRateBpm>
            <Cadence>79</Cadence>
            <Extensions>
              <ext:TPX>
                <ext:Watts>84</ext:Watts>
              </ext:TPX>
            </Extensions>
          </Trackpoint>
          <Trackpoint>
            <Time>2026-09-07T19:07:57.000Z</Time>
            <HeartRateBpm>
              <Value>79</Value>
            </HeartRateBpm>
            <Cadence>80</Cadence>
            <Extensions>
              <ext:TPX>
                <ext:Watts>84</ext:Watts>
              </ext:TPX>
            </Extensions>
          </Trackpoint>
          <Trackpoint>
            <Time>2026-09-07T19:07:58.000Z</Time>
            <HeartRateBpm>
              <Value>80</Value>
            </HeartRateBpm>
            <Cadence>77</Cadence>
            <Extensions>
              <ext:TPX>
                <ext:Watts>84</ext:Watts>
              </ext:TPX>
            </Extensions>
          </Trackpoint>
          <Trackpoint>
            <Time>2026-09-07T19:07:59.000Z</Time>
            <HeartRateBpm>
              <Value>80</Value>
            </HeartRateBpm>
            <Cadence>79</Cadence>
            <Extensions>
              <ext:TPX>
                <ext:Watts>83</ext:Watts>
              </ext:TPX>
            </Extensions>
          </Trackpoint>
          <Trackpoint>
            <Time>2026-09-07T19:08:00.000Z</Time>
            <HeartRateBpm>
              <Value>80</Value>
            </HeartRateBpm>
            <Cadence>78</Cadence>
            <Extensions>
              <ext:TPX>
                <ext:Watts>83</ext:Watts>
              </ext:TPX>
            </Extensions>
          </Trackpoint>
          <Trackpoint>
            <Time>2026-09-07T19:08:01.000Z</Time>
            <HeartRateBpm>
              <Value>79</Value>
            </HeartRateBpm>
            <Cadence>78</Cadence>
            <Extensions>
              <ext:TPX>
                <ext:Watts>83</ext:Watts>
              </ext:TPX>
            </Extensions>
          </Trackpoint>
          <Trackpoint>
            <Time>2026-09-07T19:08:02.000Z</Time>
            <HeartRateBpm>
              <Value>79</Value>
            </HeartRateBpm>
            <Cadence>72</Cadence>
            <Extensions>
              <ext:TPX>
                <ext:Watts>84</ext:Watts>
              </ext:TPX>
            </Extensions>
          </Trackpoint>
          <Trackpoint>
            <Time>2026-09-07T19:08:03.000Z</Time>
            <HeartRateBpm>
              <Value>79</Value>
            </HeartRateBpm>
            <Cadence>77</Cadence>
            <Extensions>
              <ext:TPX>
                <ext:Watts>84</ext:Watts>
              </ext:TPX>
            </Extensions>
          </Trackpoint>
          <Trackpoint>
            <Time>2026-09-07T19:08:04.000Z</Time>
            <HeartRateBpm>
              <Value>79</Value>
            </HeartRateBpm>
            <Cadence>80</Cadence>
            <Extensions>
              <ext:TPX>
                <ext:Watts>83</ext:Watts>
              </ext:TPX>
            </Extensions>
          </Trackpoint>
          <Trackpoint>
            <Time>2026-09-07T19:08:05.000Z</Time>
            <HeartRateBpm>
              <Value>79</Value>
            </HeartRateBpm>
            <Cadence>77</Cadence>
            <Extensions>
              <ext:TPX>
                <ext:Watts>83</ext:Watts>
              </ext:TPX>
            </Extensions>
          </Trackpoint>
          <Trackpoint>
            <Time>2026-09-07T19:08:06.000Z</Time>
            <HeartRateBpm>
              <Value>81</Value>
            </HeartRateBpm>
            <Cadence>74</Cadence>
            <Extensions>
              <ext:TPX>
                <ext:Watts>83</ext:Watts>
              </ext:TPX>
            </Extensions>
          </Trackpoint>
          <Trackpoint>
            <Time>2026-09-07T19:08:07.000Z</Time>
            <HeartRateBpm>
              <Value>86</Value>
            </HeartRateBpm>
            <Cadence>74</Cadence>
            <Extensions>
              <ext:TPX>
                <ext:Watts>83</ext:Watts>
              </ext:TPX>
            </Extensions>
          </Trackpoint>
          <Trackpoint>
            <Time>2026-09-07T19:08:08.000Z</Time>
            <HeartRateBpm>
              <Value>92</Value>
            </HeartRateBpm>
            <Cadence>79</Cadence>
            <Extensions>
              <ext:TPX>
                <ext:Watts>83</ext:Watts>
              </ext:TPX>
            </Extensions>
          </Trackpoint>
          <Trackpoint>
            <Time>2026-09-07T19:08:09.000Z</Time>
            <HeartRateBpm>
              <Value>92</Value>
            </HeartRateBpm>
            <Cadence>79</Cadence>
            <Extensions>
              <ext:TPX>
                <ext:Watts>83</ext:Watts>
              </ext:TPX>
            </Extensions>
          </Trackpoint>
          <Trackpoint>
            <Time>2026-09-07T19:08:10.000Z</Time>
            <HeartRateBpm>
              <Value>95</Value>
            </HeartRateBpm>
            <Cadence>78</Cadence>
            <Extensions>
              <ext:TPX>
                <ext:Watts>83</ext:Watts>
              </ext:TPX>
            </Extensions>
          </Trackpoint>
          <Trackpoint>
            <Time>2026-09-07T19:08:11.000Z</Time>
            <HeartRateBpm>
              <Value>97</Value>
            </HeartRateBpm>
            <Cadence>78</Cadence>
            <Extensions>
              <ext:TPX>
                <ext:Watts>82</ext:Watts>
              </ext:TPX>
            </Extensions>
          </Trackpoint>
          <Trackpoint>
            <Time>2026-09-07T19:08:12.000Z</Time>
            <HeartRateBpm>
              <Value>97</Value>
            </HeartRateBpm>
            <Cadence>77</Cadence>
            <Extensions>
              <ext:TPX>
                <ext:Watts>82</ext:Watts>
              </ext:TPX>
            </Extensions>
          </Trackpoint>
          <Trackpoint>
            <Time>2026-09-07T19:08:13.000Z</Time>
            <HeartRateBpm>
              <Value>99</Value>
            </HeartRateBpm>
            <Cadence>77</Cadence>
            <Extensions>
              <ext:TPX>
                <ext:Watts>82</ext:Watts>
              </ext:TPX>
            </Extensions>
          </Trackpoint>
          <Trackpoint>
            <Time>2026-09-07T19:08:14.000Z</Time>
            <HeartRateBpm>
              <Value>100</Value>
            </HeartRateBpm>
            <Cadence>76</Cadence>
            <Extensions>
              <ext:TPX>
                <ext:Watts>83</ext:Watts>
              </ext:TPX>
            </Extensions>
          </Trackpoint>
          <Trackpoint>
            <Time>2026-09-07T19:08:15.000Z</Time>
            <HeartRateBpm>
              <Value>101</Value>
            </HeartRateBpm>
            <Cadence>76</Cadence>
            <Extensions>
              <ext:TPX>
                <ext:Watts>84</ext:Watts>
              </ext:TPX>
            </Extensions>
          </Trackpoint>
          <Trackpoint>
            <Time>2026-09-07T19:08:16.000Z</Time>
            <HeartRateBpm>
              <Value>101</Value>
            </HeartRateBpm>
            <Cadence>78</Cadence>
            <Extensions>
              <ext:TPX>
                <ext:Watts>84</ext:Watts>
              </ext:TPX>
            </Extensions>
          </Trackpoint>
          <Trackpoint>
            <Time>2026-09-07T19:08:17.000Z</Time>
            <HeartRateBpm>
              <Value>101</Value>
            </HeartRateBpm>
            <Cadence>78</Cadence>
            <Extensions>
              <ext:TPX>
                <ext:Watts>84</ext:Watts>
              </ext:TPX>
            </Extensions>
          </Trackpoint>
          <Trackpoint>
            <Time>2026-09-07T19:08:18.000Z</Time>
            <HeartRateBpm>
              <Value>101</Value>
            </HeartRateBpm>
            <Cadence>79</Cadence>
            <Extensions>
              <ext:TPX>
                <ext:Watts>84</ext:Watts>
              </ext:TPX>
            </Extensions>
          </Trackpoint>
          <Trackpoint>
            <Time>2026-09-07T19:08:19.000Z</Time>
            <HeartRateBpm>
              <Value>101</Value>
            </HeartRateBpm>
            <Cadence>79</Cadence>
            <Extensions>
              <ext:TPX>
                <ext:Watts>84</ext:Watts>
              </ext:TPX>
            </Extensions>
          </Trackpoint>
          <Trackpoint>
            <Time>2026-09-07T19:08:20.000Z</Time>
            <HeartRateBpm>
              <Value>101</Value>
            </HeartRateBpm>
            <Cadence>79</Cadence>
            <Extensions>
              <ext:TPX>
                <ext:Watts>84</ext:Watts>
              </ext:TPX>
            </Extensions>
          </Trackpoint>
          <Trackpoint>
            <Time>2026-09-07T19:08:21.000Z</Time>
            <HeartRateBpm>
              <Value>101</Value>
            </HeartRateBpm>
            <Cadence>77</Cadence>
            <Extensions>
              <ext:TPX>
                <ext:Watts>84</ext:Watts>
              </ext:TPX>
            </Extensions>
          </Trackpoint>
          <Trackpoint>
            <Time>2026-09-07T19:08:22.000Z</Time>
            <HeartRateBpm>
              <Value>102</Value>
            </HeartRateBpm>
            <Cadence>76</Cadence>
            <Extensions>
              <ext:TPX>
                <ext:Watts>84</ext:Watts>
              </ext:TPX>
            </Extensions>
          </Trackpoint>
          <Trackpoint>
            <Time>2026-09-07T19:08:23.000Z</Time>
            <HeartRateBpm>
              <Value>102</Value>
            </HeartRateBpm>
            <Cadence>76</Cadence>
            <Extensions>
              <ext:TPX>
                <ext:Watts>86</ext:Watts>
              </ext:TPX>
            </Extensions>
          </Trackpoint>
          <Trackpoint>
            <Time>2026-09-07T19:08:24.000Z</Time>
            <HeartRateBpm>
              <Value>103</Value>
            </HeartRateBpm>
            <Cadence>86</Cadence>
            <Extensions>
              <ext:TPX>
                <ext:Watts>86</ext:Watts>
              </ext:TPX>
            </Extensions>
          </Trackpoint>
          <Trackpoint>
            <Time>2026-09-07T19:08:25.000Z</Time>
            <HeartRateBpm>
              <Value>103</Value>
            </HeartRateBpm>
            <Cadence>86</Cadence>
            <Extensions>
              <ext:TPX>
                <ext:Watts>86</ext:Watts>
              </ext:TPX>
            </Extensions>
          </Trackpoint>
          <Trackpoint>
            <Time>2026-09-07T19:08:26.000Z</Time>
            <HeartRateBpm>
              <Value>103</Value>
            </HeartRateBpm>
            <Cadence>86</Cadence>
            <Extensions>
              <ext:TPX>
                <ext:Watts>83</ext:Watts>
              </ext:TPX>
            </Extensions>
          </Trackpoint>
          <Trackpoint>
            <Time>2026-09-07T19:08:27.000Z</Time>
            <HeartRateBpm>
              <Value>102</Value>
            </HeartRateBpm>
            <Cadence>73</Cadence>
            <Extensions>
              <ext:TPX>
                <ext:Watts>80</ext:Watts>
              </ext:TPX>
            </Extensions>
          </Trackpoint>
          <Trackpoint>
            <Time>2026-09-07T19:08:28.000Z</Time>
            <HeartRateBpm>
              <Value>103</Value>
            </HeartRateBpm>
            <Cadence>78</Cadence>
            <Extensions>
              <ext:TPX>
                <ext:Watts>80</ext:Watts>
              </ext:TPX>
            </Extensions>
          </Trackpoint>
          <Trackpoint>
            <Time>2026-09-07T19:08:29.000Z</Time>
            <HeartRateBpm>
              <Value>104</Value>
            </HeartRateBpm>
            <Cadence>78</Cadence>
            <Extensions>
              <ext:TPX>
                <ext:Watts>80</ext:Watts>
              </ext:TPX>
            </Extensions>
          </Trackpoint>
          <Trackpoint>
            <Time>2026-09-07T19:08:30.000Z</Time>
            <HeartRateBpm>
              <Value>104</Value>
            </HeartRateBpm>
            <Cadence>74</Cadence>
            <Extensions>
              <ext:TPX>
                <ext:Watts>80</ext:Watts>
              </ext:TPX>
            </Extensions>
          </Trackpoint>
          <Trackpoint>
            <Time>2026-09-07T19:08:31.000Z</Time>
            <HeartRateBpm>
              <Value>104</Value>
            </HeartRateBpm>
            <Cadence>74</Cadence>
            <Extensions>
              <ext:TPX>
                <ext:Watts>80</ext:Watts>
              </ext:TPX>
            </Extensions>
          </Trackpoint>
          <Trackpoint>
            <Time>2026-09-07T19:08:32.000Z</Time>
            <HeartRateBpm>
              <Value>104</Value>
            </HeartRateBpm>
            <Cadence>74</Cadence>
            <Extensions>
              <ext:TPX>
                <ext:Watts>80</ext:Watts>
              </ext:TPX>
            </Extensions>
          </Trackpoint>
          <Trackpoint>
            <Time>2026-09-07T19:08:33.000Z</Time>
            <HeartRateBpm>
              <Value>105</Value>
            </HeartRateBpm>
            <Cadence>74</Cadence>
            <Extensions>
              <ext:TPX>
                <ext:Watts>80</ext:Watts>
              </ext:TPX>
            </Extensions>
          </Trackpoint>
          <Trackpoint>
            <Time>2026-09-07T19:08:34.000Z</Time>
            <HeartRateBpm>
              <Value>105</Value>
            </HeartRateBpm>
            <Cadence>74</Cadence>
            <Extensions>
              <ext:TPX>
                <ext:Watts>80</ext:Watts>
              </ext:TPX>
            </Extensions>
          </Trackpoint>
          <Trackpoint>
            <Time>2026-09-07T19:08:35.000Z</Time>
            <HeartRateBpm>
              <Value>105</Value>
            </HeartRateBpm>
            <Cadence>74</Cadence>
            <Extensions>
              <ext:TPX>
                <ext:Watts>80</ext:Watts>
              </ext:TPX>
            </Extensions>
          </Trackpoint>
          <Trackpoint>
            <Time>2026-09-07T19:08:36.000Z</Time>
            <HeartRateBpm>
              <Value>106</Value>
            </HeartRateBpm>
            <Cadence>74</Cadence>
            <Extensions>
              <ext:TPX>
                <ext:Watts>80</ext:Watts>
              </ext:TPX>
            </Extensions>
          </Trackpoint>
          <Trackpoint>
            <Time>2026-09-07T19:08:37.000Z</Time>
            <HeartRateBpm>
              <Value>105</Value>
            </HeartRateBpm>
            <Cadence>74</Cadence>
            <Extensions>
              <ext:TPX>
                <ext:Watts>80</ext:Watts>
              </ext:TPX>
            </Extensions>
          </Trackpoint>
          <Trackpoint>
            <Time>2026-09-07T19:08:38.000Z</Time>
            <HeartRateBpm>
              <Value>105</Value>
            </HeartRateBpm>
            <Cadence>74</Cadence>
            <Extensions>
              <ext:TPX>
                <ext:Watts>80</ext:Watts>
              </ext:TPX>
            </Extensions>
          </Trackpoint>
          <Trackpoint>
            <Time>2026-09-07T19:08:39.000Z</Time>
            <HeartRateBpm>
              <Value>105</Value>
            </HeartRateBpm>
            <Cadence>74</Cadence>
            <Extensions>
              <ext:TPX>
                <ext:Watts>80</ext:Watts>
              </ext:TPX>
            </Extensions>
          </Trackpoint>
          <Trackpoint>
            <Time>2026-09-07T19:08:40.000Z</Time>
            <HeartRateBpm>
              <Value>105</Value>
            </HeartRateBpm>
            <Cadence>74</Cadence>
            <Extensions>
              <ext:TPX>
                <ext:Watts>80</ext:Watts>
              </ext:TPX>
            </Extensions>
          </Trackpoint>
          <Trackpoint>
            <Time>2026-09-07T19:08:41.000Z</Time>
            <HeartRateBpm>
              <Value>105</Value>
            </HeartRateBpm>
            <Cadence>74</Cadence>
            <Extensions>
              <ext:TPX>
                <ext:Watts>80</ext:Watts>
              </ext:TPX>
            </Extensions>
          </Trackpoint>
          <Trackpoint>
            <Time>2026-09-07T19:08:42.000Z</Time>
            <HeartRateBpm>
              <Value>105</Value>
            </HeartRateBpm>
            <Cadence>74</Cadence>
            <Extensions>
              <ext:TPX>
                <ext:Watts>80</ext:Watts>
              </ext:TPX>
            </Extensions>
          </Trackpoint>
          <Trackpoint>
            <Time>2026-09-07T19:08:43.000Z</Time>
            <HeartRateBpm>
              <Value>104</Value>
            </HeartRateBpm>
            <Cadence>74</Cadence>
            <Extensions>
              <ext:TPX>
                <ext:Watts>80</ext:Watts>
              </ext:TPX>
            </Extensions>
          </Trackpoint>
          <Trackpoint>
            <Time>2026-09-07T19:08:44.000Z</Time>
            <HeartRateBpm>
              <Value>104</Value>
            </HeartRateBpm>
            <Cadence>74</Cadence>
            <Extensions>
              <ext:TPX>
                <ext:Watts>80</ext:Watts>
              </ext:TPX>
            </Extensions>
          </Trackpoint>
          <Trackpoint>
            <Time>2026-09-07T19:08:45.000Z</Time>
            <HeartRateBpm>
              <Value>104</Value>
            </HeartRateBpm>
            <Cadence>74</Cadence>
            <Extensions>
              <ext:TPX>
                <ext:Watts>80</ext:Watts>
              </ext:TPX>
            </Extensions>
          </Trackpoint>
          <Trackpoint>
            <Time>2026-09-07T19:08:46.000Z</Time>
            <HeartRateBpm>
              <Value>104</Value>
            </HeartRateBpm>
            <Cadence>74</Cadence>
            <Extensions>
              <ext:TPX>
                <ext:Watts>80</ext:Watts>
              </ext:TPX>
            </Extensions>
          </Trackpoint>
          <Trackpoint>
            <Time>2026-09-07T19:08:47.000Z</Time>
            <HeartRateBpm>
              <Value>103</Value>
            </HeartRateBpm>
            <Cadence>74</Cadence>
            <Extensions>
              <ext:TPX>
                <ext:Watts>80</ext:Watts>
              </ext:TPX>
            </Extensions>
          </Trackpoint>
          <Trackpoint>
            <Time>2026-09-07T19:08:48.000Z</Time>
            <HeartRateBpm>
              <Value>103</Value>
            </HeartRateBpm>
            <Cadence>74</Cadence>
            <Extensions>
              <ext:TPX>
                <ext:Watts>80</ext:Watts>
              </ext:TPX>
            </Extensions>
          </Trackpoint>
          <Trackpoint>
            <Time>2026-09-07T19:08:49.000Z</Time>
            <HeartRateBpm>
              <Value>104</Value>
            </HeartRateBpm>
            <Cadence>74</Cadence>
            <Extensions>
              <ext:TPX>
                <ext:Watts>80</ext:Watts>
              </ext:TPX>
            </Extensions>
          </Trackpoint>
          <Trackpoint>
            <Time>2026-09-07T19:08:50.000Z</Time>
            <HeartRateBpm>
              <Value>103</Value>
            </HeartRateBpm>
            <Cadence>74</Cadence>
            <Extensions>
              <ext:TPX>
                <ext:Watts>80</ext:Watts>
              </ext:TPX>
            </Extensions>
          </Trackpoint>
          <Trackpoint>
            <Time>2026-09-07T19:08:51.000Z</Time>
            <HeartRateBpm>
              <Value>103</Value>
            </HeartRateBpm>
            <Cadence>74</Cadence>
            <Extensions>
              <ext:TPX>
                <ext:Watts>80</ext:Watts>
              </ext:TPX>
            </Extensions>
          </Trackpoint>
          <Trackpoint>
            <Time>2026-09-07T19:08:52.000Z</Time>
            <HeartRateBpm>
              <Value>102</Value>
            </HeartRateBpm>
            <Cadence>74</Cadence>
            <Extensions>
              <ext:TPX>
                <ext:Watts>80</ext:Watts>
              </ext:TPX>
            </Extensions>
          </Trackpoint>
          <Trackpoint>
            <Time>2026-09-07T19:08:53.000Z</Time>
            <HeartRateBpm>
              <Value>102</Value>
            </HeartRateBpm>
            <Cadence>74</Cadence>
            <Extensions>
              <ext:TPX>
                <ext:Watts>80</ext:Watts>
              </ext:TPX>
            </Extensions>
          </Trackpoint>
          <Trackpoint>
            <Time>2026-09-07T19:08:54.000Z</Time>
            <HeartRateBpm>
              <Value>103</Value>
            </HeartRateBpm>
            <Cadence>74</Cadence>
            <Extensions>
              <ext:TPX>
                <ext:Watts>80</ext:Watts>
              </ext:TPX>
            </Extensions>
          </Trackpoint>
          <Trackpoint>
            <Time>2026-09-07T19:08:55.000Z</Time>
            <HeartRateBpm>
              <Value>103</Value>
            </HeartRateBpm>
            <Cadence>74</Cadence>
            <Extensions>
              <ext:TPX>
                <ext:Watts>80</ext:Watts>
              </ext:TPX>
            </Extensions>
          </Trackpoint>
          <Trackpoint>
            <Time>2026-09-07T19:08:56.000Z</Time>
            <HeartRateBpm>
              <Value>103</Value>
            </HeartRateBpm>
            <Cadence>74</Cadence>
            <Extensions>
              <ext:TPX>
                <ext:Watts>80</ext:Watts>
              </ext:TPX>
            </Extensions>
          </Trackpoint>
          <Trackpoint>
            <Time>2026-09-07T19:08:57.000Z</Time>
            <HeartRateBpm>
              <Value>103</Value>
            </HeartRateBpm>
            <Cadence>74</Cadence>
            <Extensions>
              <ext:TPX>
                <ext:Watts>80</ext:Watts>
              </ext:TPX>
            </Extensions>
          </Trackpoint>
          <Trackpoint>
            <Time>2026-09-07T19:08:58.000Z</Time>
            <HeartRateBpm>
              <Value>103</Value>
            </HeartRateBpm>
            <Cadence>74</Cadence>
            <Extensions>
              <ext:TPX>
                <ext:Watts>80</ext:Watts>
              </ext:TPX>
            </Extensions>
          </Trackpoint>
          <Trackpoint>
            <Time>2026-09-07T19:08:59.000Z</Time>
            <HeartRateBpm>
              <Value>103</Value>
            </HeartRateBpm>
            <Cadence>74</Cadence>
            <Extensions>
              <ext:TPX>
                <ext:Watts>80</ext:Watts>
              </ext:TPX>
            </Extensions>
          </Trackpoint>
          <Trackpoint>
            <Time>2026-09-07T19:09:00.000Z</Time>
            <HeartRateBpm>
              <Value>104</Value>
            </HeartRateBpm>
            <Cadence>74</Cadence>
            <Extensions>
              <ext:TPX>
                <ext:Watts>80</ext:Watts>
              </ext:TPX>
            </Extensions>
          </Trackpoint>
          <Trackpoint>
            <Time>2026-09-07T19:09:01.000Z</Time>
            <HeartRateBpm>
              <Value>104</Value>
            </HeartRateBpm>
            <Cadence>74</Cadence>
            <Extensions>
              <ext:TPX>
                <ext:Watts>80</ext:Watts>
              </ext:TPX>
            </Extensions>
          </Trackpoint>
          <Trackpoint>
            <Time>2026-09-07T19:09:02.000Z</Time>
            <HeartRateBpm>
              <Value>104</Value>
            </HeartRateBpm>
            <Cadence>74</Cadence>
            <Extensions>
              <ext:TPX>
                <ext:Watts>80</ext:Watts>
              </ext:TPX>
            </Extensions>
          </Trackpoint>
        </Track>
      </Lap>
    </Activity>
  </Activities>
</TrainingCenterDatabase>
